{
  "norad_id": 47383,
  "name": "STARLINK-2103",
  "history": [
    {
      "epoch": "2026-03-28T22:16:14.487744",
      "apogee_km": 475.55955354815524,
      "perigee_km": 473.4050900333832,
      "latitude_deg": -37.00282246992133,
      "longitude_deg": 87.38276416016743,
      "semi_major_axis_km": 6852.6193217907685,
      "eccentricity": 0.0001572,
      "inclination_deg": 53.159,
      "raan_deg": 284.8515,
      "arg_perigee_deg": 83.8805,
      "mean_anomaly_deg": 276.2375,
      "mean_motion_rev_day": 15.30445442
    }
  ]
}